BEIDOU-3 G1             
1 43683U 18085A   26190.24408031 -.00000097  00000+0  00000+0 0  9991
2 43683   2.9208  96.7949 0008285 354.9204  83.2768  1.00273138 28280
GSAT-29                 
1 43698U 18089A   26190.22328022  .00000098  00000+0  00000+0 0  9990
2 43698   0.0579 256.4412 0003117 186.1268 340.0378  1.00273978 28003
ES'HAIL 2               
1 43700U 18090A   26190.28882493  .00000158  00000+0  00000+0 0  9996
2 43700   0.0156 342.6577 0002380 173.8878 260.4812  1.00273126 27898
GEO-KOMPSAT-2A          
1 43823U 18100A   26190.29558601 -.00000330  00000+0  00000+0 0  9999
2 43823   0.0266 139.9618 0002245 320.8676  61.0759  1.00270111 27851
GSAT-11                 
1 43824U 18100B   26190.17128253 -.00000063  00000+0  00000+0 0  9996
2 43824   0.0645 264.1751 0007768 192.4249 326.1872  1.00271011 27699
GSAT-7A                 
1 43864U 18105A   26190.17475156  .00000041  00000+0  00000+0 0  9997
2 43864   0.0687  92.8097 0001739  13.3316 306.6524  1.00269751 27668
COSMOS 2533             
1 43867U 18107A   26188.86413821 -.00000022  00000+0  00000+0 0  9996
2 43867   0.0391 113.0015 0000075 203.4581 350.4542  1.00267650 27659
TJS-3                   
1 43874U 18110A   26189.75030580 -.00000204  00000+0  00000+0 0  9996
2 43874   2.5971  80.2345 0002450  85.6886 179.0807  1.00273536 27633
ZHONGXING-2D            
1 43920U 19001A   26190.66588131 -.00000324  00000+0  00000+0 0  9993
2 43920   0.0644 239.8048 0000399 105.6116 311.8657  1.00273688 54307
HELLAS-SAT 4 & SGS-1    
1 44034U 19007A   26190.28794834  .00000166  00000+0  00000+0 0  9996
2 44034   0.0649 129.5200 0005793  16.9263 283.4612  1.00271260 27583
GSAT-31                 
1 44035U 19007B   26190.04350208  .00000000  00000+0  00000+0 0  9991
2 44035   0.0142  37.4165 0000499 213.6353  99.4944  1.00272455 27189
NUSANTARA SATU          
1 44048U 19009A   26190.18933765 -.00000221  00000+0  00000+0 0  9993
2 44048   0.0338 125.1351 0004587   0.9780  15.1792  1.00269806 26995
ZHONGXING-6C            
1 44067U 19012A   26190.66596796 -.00000322  00000+0  00000+0 0  9992
2 44067   0.0773  73.6097 0014628 339.8934 244.2854  1.00273663 26962
WGS 10 (USA 291)        
1 44071U 19014A   26190.01049479  .00000061  00000+0  00000+0 0  9998
2 44071   0.0195  41.9504 0000139 209.8595  99.2261  1.00272238 26830
TIANLIAN 2-01           
1 44076U 19017A   26190.22336155 -.00000093  00000+0  00000+0 0  9995
2 44076   0.5936  83.0785 0001407  74.1688 287.3523  1.00271124 26874
ARABSAT-6A              
1 44186U 19021A   26190.04905970  .00000167  00000+0  00000+0 0  9990
2 44186   0.0459   7.2043 0001481 258.0803  69.8419  1.00267797 26373
BEIDOU-3 IGSO-1         
1 44204U 19023A   26189.48210734 -.00000209  00000+0  00000+0 0  9994
2 44204  58.7247  37.4318 0025582 224.0549 317.4664  1.00285216  7422
BEIDOU-2 G8             
1 44231U 19027A   26190.31229302 -.00000235  00000+0  00000+0 0  9992
2 44231   1.7106  74.5118 0009863 284.0468 185.6210  1.00273938 26302
YAMAL 601               
1 44307U 19031A   26190.15082925  .00000134  00000+0  00000+0 0  9998
2 44307   0.0205  83.8937 0002373  22.3251 284.1751  1.00271906 26142
AT&T T-16               
1 44333U 19034A   26189.90724572 -.00000102  00000+0  00000+0 0  9998
2 44333   0.0150  69.4947 0000821 234.2043 208.9039  1.00276266 25854
EUTELSAT 7C             
1 44334U 19034B   26189.35836316  .00000063  00000+0  00000+0 0  9993
2 44334   0.0756 179.8700 0003235 274.1432 328.3248  1.00270664  7043
BEIDOU-3 IGSO-2         
1 44337U 19035A   26190.30743966 -.00000077  00000+0  00000+0 0  9998
2 44337  55.2505 158.6691 0039601 216.3164 141.7794  1.00259480 25888
COSMOS 2539             
1 44457U 19048A   26190.57119573  .00000093  00000+0  00000+0 0  9992
2 44457   0.0346 103.8474 0000118  52.2322 349.0530  1.00269145 25450
EDRS-C                  
1 44475U 19049A   26190.31194634 -.00000249  00000+0  00000+0 0  9990
2 44475   0.0059  69.1550 0000921  50.5260  62.3596  1.00268674 25435
INTELSAT 39 (IS-39)     
1 44476U 19049B   26189.90878258  .00000000  00000+0  00000+0 0  9999
2 44476   0.0249  29.7598 0000867 289.1456 357.0558  1.00270097 25341
AMOS-17                 
1 44479U 19050A   26190.28864119  .00000123  00000+0  00000+0 0  9994
2 44479   0.0192 338.3620 0001375 134.0534 295.6994  1.00271343 25409
AEHF-5 (USA 292)        
1 44481U 19051A   26190.30215297 -.00000242  00000+0  00000+0 0  9991
2 44481   1.4354 337.8436 0065466 358.4872 152.6634  1.00266396 25487
EUTELSAT 5 WEST B       
1 44624U 19067A   26190.29975376 -.00000029  00000+0  00000+0 0  9999
2 44624   0.0640 344.6572 0003076 125.3410 280.1477  1.00271310 24656
MEV-1                   
1 44625U 19067B   26167.92963140 -.00000149  00000+0  00000+0 0  9993
2 44625   0.8740 268.9828 0002794 179.8034 307.2103  1.00269616 61744
TJS-4                   
1 44637U 19070A   26190.30017832 -.00000156  00000+0  00000+0 0  9994
2 44637   0.0684  87.1656 0003380 320.7503  70.9332  1.00270163 24764
TIBA-1                  
1 44800U 19080A   26190.28794834  .00000169  00000+0  00000+0 0  9991
2 44800   0.0500 358.4654 0001927 121.5694 306.3681  1.00267927 24282
INMARSAT GX5            
1 44801U 19080B   26190.29419885  .00000088  00000+0  00000+0 0  9993
2 44801   0.0382  24.1694 0002063  80.7410 299.2506  1.00271720  7009
