OBJECT_NAME,OBJECT_ID,EPOCH,MEAN_MOTION,ECCENTRICITY,INCLINATION,RA_OF_ASC_NODE,ARG_OF_PERICENTER,MEAN_ANOMALY,EPHEMERIS_TYPE,CLASSIFICATION_TYPE,NORAD_CAT_ID,ELEMENT_SET_NO,REV_AT_EPOCH,BSTAR,MEAN_MOTION_DOT,MEAN_MOTION_DDOT
BEIDOU-3 G1,2018-085A,2026-07-09T05:51:28.538784,1.00273138,.00082853,2.9208,96.7949,354.9204,83.2768,0,U,43683,999,2828,0,-.97E-6,0
GSAT-29,2018-089A,2026-07-09T05:21:31.411008,1.00273978,.00031179,0.0579,256.4412,186.1268,340.0378,0,U,43698,999,2800,0,.98E-6,0
ES'HAIL 2,2018-090A,2026-07-09T06:55:54.473952,1.00273126,.00023803,0.0156,342.6577,173.8878,260.4812,0,U,43700,999,2789,0,.158E-5,0
GEO-KOMPSAT-2A,2018-100A,2026-07-09T07:05:38.631264,1.00270111,.0002245,0.0266,139.9618,320.8676,61.0759,0,U,43823,999,2785,0,-.33E-5,0
GSAT-11,2018-100B,2026-07-09T04:06:38.810592,1.00271011,.00077684,0.0645,264.1751,192.4249,326.1872,0,U,43824,999,2769,0,-.63E-6,0
GSAT-7A,2018-105A,2026-07-09T04:11:38.534784,1.00269751,.00017399,0.0687,92.8097,13.3316,306.6524,0,U,43864,999,2766,0,.41E-6,0
COSMOS 2533,2018-107A,2026-07-07T20:44:21.541344,1.00267650,.0000075,0.0391,113.0015,203.4581,350.4542,0,U,43867,999,2765,0,-.22E-6,0
TJS-3,2018-110A,2026-07-08T18:00:26.421120,1.00273536,.000245,2.5971,80.2345,85.6886,179.0807,0,U,43874,999,2763,0,-.204E-5,0
ZHONGXING-2D,2019-001A,2026-07-09T15:58:52.145184,1.00273688,.0000399,0.0644,239.8048,105.6116,311.8657,0,U,43920,999,5430,0,-.324E-5,0
HELLAS-SAT 4 & SGS-1,2019-007A,2026-07-09T06:54:38.736576,1.00271260,.00057936,0.0649,129.5200,16.9263,283.4612,0,U,44034,999,2758,0,.166E-5,0
GSAT-31,2019-007B,2026-07-09T01:02:38.579712,1.00272455,.00004995,0.0142,37.4165,213.6353,99.4944,0,U,44035,999,2718,0,0,0
NUSANTARA SATU,2019-009A,2026-07-09T04:32:38.772960,1.00269806,.00045874,0.0338,125.1351,0.9780,15.1792,0,U,44048,999,2699,0,-.221E-5,0
ZHONGXING-6C,2019-012A,2026-07-09T15:58:59.631744,1.00273663,.0014628,0.0773,73.6097,339.8934,244.2854,0,U,44067,999,2696,0,-.322E-5,0
WGS 10 (USA 291),2019-014A,2026-07-09T00:15:06.749856,1.00272238,.00001398,0.0195,41.9504,209.8595,99.2261,0,U,44071,999,2683,0,.61E-6,0
TIANLIAN 2-01,2019-017A,2026-07-09T05:21:38.437920,1.00271124,.00014071,0.5936,83.0785,74.1688,287.3523,0,U,44076,999,2687,0,-.93E-6,0
ARABSAT-6A,2019-021A,2026-07-09T01:10:38.758080,1.00267797,.00014814,0.0459,7.2043,258.0803,69.8419,0,U,44186,999,2637,0,.167E-5,0
BEIDOU-3 IGSO-1,2019-023A,2026-07-08T11:34:14.074176,1.00285216,.00255829,58.7247,37.4318,224.0549,317.4664,0,U,44204,999,742,0,-.209E-5,0
BEIDOU-2 G8,2019-027A,2026-07-09T07:29:42.116928,1.00273938,.00098633,1.7106,74.5118,284.0468,185.6210,0,U,44231,999,2630,0,-.235E-5,0
YAMAL 601,2019-031A,2026-07-09T03:37:11.647200,1.00271906,.0002373,0.0205,83.8937,22.3251,284.1751,0,U,44307,999,2614,0,.134E-5,0
AT&T T-16,2019-034A,2026-07-08T21:46:26.030208,1.00276266,.00008218,0.0150,69.4947,234.2043,208.9039,0,U,44333,999,2585,0,-.102E-5,0
EUTELSAT 7C,2019-034B,2026-07-08T08:36:02.577024,1.00270664,.00032351,0.0756,179.8700,274.1432,328.3248,0,U,44334,999,704,0,.63E-6,0
BEIDOU-3 IGSO-2,2019-035A,2026-07-09T07:22:42.786624,1.00259480,.00396018,55.2505,158.6691,216.3164,141.7794,0,U,44337,999,2588,0,-.77E-6,0
COSMOS 2539,2019-048A,2026-07-09T13:42:31.311072,1.00269145,.0000118,0.0346,103.8474,52.2322,349.0530,0,U,44457,999,2545,0,.93E-6,0
EDRS-C,2019-049A,2026-07-09T07:29:12.163776,1.00268674,.00009213,0.0059,69.1550,50.5260,62.3596,0,U,44475,999,2543,0,-.249E-5,0
INTELSAT 39 (IS-39),2019-049B,2026-07-08T21:48:38.814912,1.00270097,.00008679,0.0249,29.7598,289.1456,357.0558,0,U,44476,999,2534,0,0,0
AMOS-17,2019-050A,2026-07-09T06:55:38.598816,1.00271343,.0001375,0.0192,338.3620,134.0534,295.6994,0,U,44479,999,2540,0,.123E-5,0
AEHF-5 (USA 292),2019-051A,2026-07-09T07:15:06.016608,1.00266396,.00654663,1.4354,337.8436,358.4872,152.6634,0,U,44481,999,2548,0,-.242E-5,0
EUTELSAT 5 WEST B,2019-067A,2026-07-09T07:11:38.724864,1.00271310,.00030765,0.0640,344.6572,125.3410,280.1477,0,U,44624,999,2465,0,-.29E-6,0
MEV-1,2019-067B,2026-06-16T22:18:40.152960,1.00269616,.00027946,0.8740,268.9828,179.8034,307.2103,0,U,44625,999,6174,0,-.149E-5,0
TJS-4,2019-070A,2026-07-09T07:12:15.406848,1.00270163,.00033809,0.0684,87.1656,320.7503,70.9332,0,U,44637,999,2476,0,-.156E-5,0
TIBA-1,2019-080A,2026-07-09T06:54:38.736576,1.00267927,.00019277,0.0500,358.4654,121.5694,306.3681,0,U,44800,999,2428,0,.169E-5,0
INMARSAT GX5,2019-080B,2026-07-09T07:03:38.780640,1.00271720,.00020632,0.0382,24.1694,80.7410,299.2506,0,U,44801,999,700,0,.88E-6,0
